OBJECT_NAME,OBJECT_ID,EPOCH,MEAN_MOTION,ECCENTRICITY,INCLINATION,RA_OF_ASC_NODE,ARG_OF_PERICENTER,MEAN_ANOMALY,EPHEMERIS_TYPE,CLASSIFICATION_TYPE,NORAD_CAT_ID,ELEMENT_SET_NO,REV_AT_EPOCH,BSTAR,MEAN_MOTION_DOT,MEAN_MOTION_DDOT
ONEWEB-0473,2022-012AH,2026-07-16T11:58:51.613536,13.10376694,.00018705,87.8817,30.4344,89.8846,270.2496,0,U,51653,999,21314,-.10644652E-2,-.359E-5,0
ONEWEB-0474,2022-012AJ,2026-07-16T11:46:37.316352,13.10375019,.00015813,87.8823,30.4230,94.6886,265.4422,0,U,51654,999,21313,-.18003905E-2,-.616E-5,0
ONEWEB-0475,2022-012AK,2026-07-16T10:59:11.042880,13.17649203,.00014718,87.9149,0.0494,113.3559,246.7727,0,U,51655,999,21754,.16442829E-3,.77E-6,0
ONEWEB-0490,2022-138A,2026-07-16T07:46:37.605504,13.19726463,.00020848,87.9192,299.1667,105.5523,254.5840,0,U,54113,999,18067,.93749E-4,.5E-6,0
ONEWEB-0492,2022-138B,2026-07-16T06:33:49.454784,13.19725044,.00022494,87.9184,299.1761,103.7045,256.4338,0,U,54114,999,18067,-.59659138E-3,-.226E-5,0
ONEWEB-0495,2022-138C,2026-07-16T07:51:10.677024,13.19726482,.00022533,87.9185,299.1682,117.4900,242.6463,0,U,54115,999,18066,.10782845E-3,.56E-6,0
ONEWEB-0497,2022-138D,2026-07-16T06:20:10.480416,13.19723441,.00020443,87.9193,299.1745,103.7203,256.4158,0,U,54116,999,18064,.79937194E-4,.45E-6,0
ONEWEB-0499,2022-138E,2026-07-16T13:13:01.060608,13.19724176,.00020024,87.9184,299.1246,107.5506,252.5846,0,U,54117,999,18069,.31258109E-3,.138E-5,0
ONEWEB-0500,2022-138F,2026-07-16T13:16:26.502528,13.19725864,.0002109,87.9193,299.1207,99.1224,261.0148,0,U,54118,999,18070,.31958749E-4,.26E-6,0
ONEWEB-0501,2022-138G,2026-07-16T08:32:07.973376,13.19726194,.0002115,87.9193,299.1597,112.4130,247.7227,0,U,54119,999,18065,-.50590947E-4,-.7E-7,0
ONEWEB-0502,2022-138H,2026-07-16T08:11:37.353984,13.19729225,.00019631,87.9192,299.1508,107.9593,252.1754,0,U,54120,999,18067,-.23779846E-2,-.939E-5,0
ONEWEB-0503,2022-138J,2026-07-16T13:23:15.215136,13.19726735,.00017677,87.9197,299.1150,98.6298,261.5035,0,U,54121,999,18069,.21768819E-3,.1E-5,0
ONEWEB-0504,2022-138K,2026-07-16T13:05:03.476832,13.19727262,.0001906,87.9193,299.1218,106.9236,253.2106,0,U,54122,999,18070,.47408133E-3,.203E-5,0
ONEWEB-0505,2022-138L,2026-07-16T07:32:57.553728,13.19724027,.00020138,87.9191,299.1683,113.8829,246.2515,0,U,54123,999,18065,-.35211689E-3,-.128E-5,0
ONEWEB-0506,2022-138M,2026-07-16T06:56:36.470400,13.19725606,.00020342,87.9196,299.1706,110.4441,249.6910,0,U,54124,999,18064,.1209491E-3,.61E-6,0
ONEWEB-0507,2022-138N,2026-07-16T07:26:09.186720,13.19726450,.00020769,87.9185,299.1762,106.0313,254.1049,0,U,54125,999,18069,.77856047E-4,.44E-6,0
ONEWEB-0508,2022-138P,2026-07-16T07:21:36.846144,13.19726279,.0002276,87.9185,299.1765,110.7223,249.4154,0,U,54126,999,18067,.16847275E-3,.8E-6,0
ONEWEB-0509,2022-138Q,2026-07-16T08:34:23.244672,13.19724735,.00020506,87.9197,299.1588,105.4580,254.6780,0,U,54127,999,18065,-.14253614E-4,.7E-7,0
ONEWEB-0510,2022-138R,2026-07-16T05:20:34.196064,13.20769529,.00020097,87.9185,268.6503,86.1161,274.0202,0,U,54128,999,18311,.13008748E-3,.66E-6,0
ONEWEB-0511,2022-138S,2026-07-16T13:57:21.453120,13.19723431,.00017634,87.9191,299.1158,104.1188,256.0141,0,U,54129,999,18071,-.4914962E-4,-.7E-7,0
ONEWEB-0512,2022-138T,2026-07-16T13:45:58.879296,13.19727010,.000191,87.9185,299.1205,110.5548,249.5790,0,U,54130,999,18068,.10482496E-3,.55E-6,0
ONEWEB-0513,2022-138U,2026-07-16T08:09:16.684416,13.20269474,.00016344,87.9193,299.1077,127.4645,232.6637,0,U,54131,999,18056,-.1170661E-3,-.34E-6,0
ONEWEB-0514,2022-138V,2026-07-16T12:19:33.636864,13.19727193,.00019739,87.9193,299.1286,97.0742,263.0615,0,U,54132,999,18069,.15935177E-3,.77E-6,0
ONEWEB-0515,2022-138W,2026-07-16T05:01:11.672832,13.20772402,.0002765,87.9190,268.6485,85.7639,274.3810,0,U,54133,999,18313,.23676635E-3,.109E-5,0
ONEWEB-0516,2022-138X,2026-07-16T08:04:48.745920,13.19723829,.00021518,87.9187,299.1679,102.4335,257.7039,0,U,54134,999,18067,.42468087E-4,.3E-6,0
ONEWEB-0517,2022-138Y,2026-07-16T07:35:15.387648,13.19725921,.00017121,87.9193,299.1665,97.8689,262.2638,0,U,54135,999,18067,.94667032E-4,.51E-6,0
ONEWEB-0518,2022-138Z,2026-07-16T08:02:32.762688,13.19724732,.00022601,87.9182,299.1703,101.9362,258.2024,0,U,54136,999,18067,-.25310895E-3,-.88E-6,0
ONEWEB-0519,2022-138AA,2026-07-16T12:17:16.549440,13.19724234,.00018458,87.9194,299.1283,99.3655,260.7686,0,U,54137,999,18070,.18292992E-3,.86E-6,0
ONEWEB-0520,2022-138AB,2026-07-16T07:39:48.287232,13.19726184,.0002087,87.9194,299.1672,107.9074,252.2286,0,U,54138,999,18066,.15014736E-3,.73E-6,0
ONEWEB-0521,2022-138AC,2026-07-16T13:55:04.309536,13.19727763,.00018239,87.9196,299.1044,96.7693,263.3648,0,U,54139,999,18064,.21318463E-3,.98E-6,0
