ONEWEB-0473             
1 51653U 22012AH  26197.49920849 -.00000359  00000+0 -10645-2 0  9993
2 51653  87.8817  30.4344 0001870  89.8846 270.2496 13.10376694213149
ONEWEB-0474             
1 51654U 22012AJ  26197.49070968 -.00000616  00000+0 -18004-2 0  9995
2 51654  87.8823  30.4230 0001581  94.6886 265.4422 13.10375019213132
ONEWEB-0475             
1 51655U 22012AK  26197.45776670  .00000077  00000+0  16443-3 0  9990
2 51655  87.9149   0.0494 0001471 113.3559 246.7727 13.17649203217549
ONEWEB-0490             
1 54113U 22138A   26197.32404636  .00000050  00000+0  93749-4 0  9993
2 54113  87.9192 299.1667 0002084 105.5523 254.5840 13.19726463180679
ONEWEB-0492             
1 54114U 22138B   26197.27348906 -.00000226  00000+0 -59659-3 0  9993
2 54114  87.9184 299.1761 0002249 103.7045 256.4338 13.19725044180675
ONEWEB-0495             
1 54115U 22138C   26197.32720691  .00000056  00000+0  10783-3 0  9999
2 54115  87.9185 299.1682 0002253 117.4900 242.6463 13.19726482180668
ONEWEB-0497             
1 54116U 22138D   26197.26401019  .00000045  00000+0  79937-4 0  9998
2 54116  87.9193 299.1745 0002044 103.7203 256.4158 13.19723441180644
ONEWEB-0499             
1 54117U 22138E   26197.55070672  .00000138  00000+0  31258-3 0  9994
2 54117  87.9184 299.1246 0002002 107.5506 252.5846 13.19724176180695
ONEWEB-0500             
1 54118U 22138F   26197.55308452  .00000026  00000+0  31959-4 0  9990
2 54118  87.9193 299.1207 0002109  99.1224 261.0148 13.19725864180701
ONEWEB-0501             
1 54119U 22138G   26197.35564784 -.00000007  00000+0 -50591-4 0  9995
2 54119  87.9193 299.1597 0002115 112.4130 247.7227 13.19726194180656
ONEWEB-0502             
1 54120U 22138H   26197.34140456 -.00000939  00000+0 -23780-2 0  9994
2 54120  87.9192 299.1508 0001963 107.9593 252.1754 13.19729225180676
ONEWEB-0503             
1 54121U 22138J   26197.55781499  .00000100  00000+0  21769-3 0  9990
2 54121  87.9197 299.1150 0001767  98.6298 261.5035 13.19726735180696
ONEWEB-0504             
1 54122U 22138K   26197.54517913  .00000203  00000+0  47408-3 0  9990
2 54122  87.9193 299.1218 0001906 106.9236 253.2106 13.19727262180703
ONEWEB-0505             
1 54123U 22138L   26197.31455502 -.00000128  00000+0 -35212-3 0  9999
2 54123  87.9191 299.1683 0002013 113.8829 246.2515 13.19724027180659
ONEWEB-0506             
1 54124U 22138M   26197.28931100  .00000061  00000+0  12095-3 0  9997
2 54124  87.9196 299.1706 0002034 110.4441 249.6910 13.19725606180646
ONEWEB-0507             
1 54125U 22138N   26197.30982855  .00000044  00000+0  77856-4 0  9992
2 54125  87.9185 299.1762 0002076 106.0313 254.1049 13.19726450180699
ONEWEB-0508             
1 54126U 22138P   26197.30667646  .00000080  00000+0  16847-3 0  9993
2 54126  87.9185 299.1765 0002276 110.7223 249.4154 13.19726279180678
ONEWEB-0509             
1 54127U 22138Q   26197.35721348  .00000007  00000+0 -14254-4 0  9990
2 54127  87.9197 299.1588 0002050 105.4580 254.6780 13.19724735180658
ONEWEB-0510             
1 54128U 22138R   26197.22261801  .00000066  00000+0  13009-3 0  9990
2 54128  87.9185 268.6503 0002009  86.1161 274.0202 13.20769529183119
ONEWEB-0511             
1 54129U 22138S   26197.58149830 -.00000007  00000+0 -49150-4 0  9991
2 54129  87.9191 299.1158 0001763 104.1188 256.0141 13.19723431180713
ONEWEB-0512             
1 54130U 22138T   26197.57359814  .00000055  00000+0  10482-3 0  9993
2 54130  87.9185 299.1205 0001910 110.5548 249.5790 13.19727010180686
ONEWEB-0513             
1 54131U 22138U   26197.33977644 -.00000034  00000+0 -11707-3 0  9995
2 54131  87.9193 299.1077 0001634 127.4645 232.6637 13.20269474180568
ONEWEB-0514             
1 54132U 22138V   26197.51358376  .00000077  00000+0  15935-3 0  9993
2 54132  87.9193 299.1286 0001973  97.0742 263.0615 13.19727193180690
ONEWEB-0515             
1 54133U 22138W   26197.20916288  .00000109  00000+0  23677-3 0  9990
2 54133  87.9190 268.6485 0002765  85.7639 274.3810 13.20772402183138
ONEWEB-0516             
1 54134U 22138X   26197.33667530  .00000030  00000+0  42468-4 0  9991
2 54134  87.9187 299.1679 0002151 102.4335 257.7039 13.19723829180679
ONEWEB-0517             
1 54135U 22138Y   26197.31615032  .00000051  00000+0  94667-4 0  9991
2 54135  87.9193 299.1665 0001712  97.8689 262.2638 13.19725921180674
ONEWEB-0518             
1 54136U 22138Z   26197.33510142 -.00000088  00000+0 -25311-3 0  9991
2 54136  87.9182 299.1703 0002260 101.9362 258.2024 13.19724732180673
ONEWEB-0519             
1 54137U 22138AA  26197.51199710  .00000086  00000+0  18293-3 0  9993
2 54137  87.9194 299.1283 0001845  99.3655 260.7686 13.19724234180706
ONEWEB-0520             
1 54138U 22138AB  26197.31930888  .00000073  00000+0  15015-3 0  9996
2 54138  87.9194 299.1672 0002087 107.9074 252.2286 13.19726184180662
ONEWEB-0521             
1 54139U 22138AC  26197.57991099  .00000098  00000+0  21318-3 0  9996
2 54139  87.9196 299.1044 0001823  96.7693 263.3648 13.19727763180644
